ONEWEB-0558             
1 56059U 23043P   24331.11400642  .00000111  00000+0  23670-3 0  9991
2 56059  87.9308 357.1507 0001500  79.9772 280.1531 13.21825339 83195
ONEWEB-0559             
1 56060U 23043Q   24331.10296489  .00000069  00000+0  13470-3 0  9993
2 56060  87.9305 357.1475 0002002  79.9112 280.2248 13.21824498 83207
ONEWEB-0566             
1 56061U 23043R   24331.47513715  .00000118  00000+0  25334-3 0  9995
2 56061  87.9305 357.0741 0001597  75.4124 284.7187 13.21824975 83239
ONEWEB-0568             
1 56062U 23043S   24331.00963612  .00000086  00000+0  19092-3 0  9998
2 56062  87.9084 341.9588 0001818 100.4356 259.6979 13.16598195 84212
ONEWEB-0574             
1 56063U 23043T   24331.46881539  .00000042  00000+0  70704-4 0  9996
2 56063  87.9302 357.0664 0001766 107.4158 252.7169 13.21828450 83274
ONEWEB-0575             
1 56064U 23043U   24331.07933126  .00000018  00000+0  13553-4 0  9996
2 56064  87.9083 341.9562 0002248  97.8114 262.3272 13.16592431 84218
ONEWEB-0576             
1 56065U 23043V   24331.06032508  .00000003  00000+0 -26363-4 0  9998
2 56065  87.9082 341.9532 0001946  99.1103 261.0249 13.16593841 84207
ONEWEB-0577             
1 56066U 23043W   24330.99065802  .00000085  00000+0  18931-3 0  9993
2 56066  87.9085 341.9669 0002523  98.5943 261.5474 13.16592065 84223
